SAUDISAT 1C (SO-50)     
1 27607U 02058C   26185.68749616  .00001404  00000+0  18212-3 0  9991
2 27607  64.5520  74.8394 0074817 259.1898 100.0781 14.83086074267058
SAUDISAT 2              
1 28371U 04025F   26185.26991954  .00000307  00000+0  79546-4 0  9993
2 28371  98.5512 185.6936 0023556 243.0600 116.8191 14.56693820168238
SAUDISAT 3              
1 31118U 07012B   26185.80320751  .00000427  00000+0  77061-4 0  9999
2 31118  98.1462 136.2161 0014887 166.2917 193.8697 14.71436735 30339
PISAT                   
1 41784U 16059B   26185.44522839  .00001202  00000+0  21170-3 0  9992
2 41784  97.8184 185.1567 0029785 147.8327 212.4704 14.69015535522276
FLYING LAPTOP           
1 42831U 17042G   26185.98245589  .00005903  00000+0  46169-3 0  9999
2 42831  97.4771 340.8398 0019966  64.9202 295.4092 15.01265311489124
SALSAT                  
1 46495U 20068K   26185.73936093  .00013612  00000+0  46989-3 0  9997
2 46495  97.8855 189.8756 0008222 233.3566 126.6918 15.30063013318049
